BEIDOU-3 M26 (C48)      
1 58655U 23207B   26116.01176097 -.00000037  00000+0  00000+0 0  9999
2 58655  55.7110  64.0489 0004977 305.0678  54.8583  1.86229668 15857
BEIDOU-3 M25 (C47)      
1 61186U 24168B   26116.64504644 -.00000060  00000+0  00000+0 0  9997
2 61186  54.5199 304.0320 0003273 319.3255 222.3612  1.86230074 10822
BEIDOU-3 M27 (C49)      
1 61187U 24168C   26116.44561181 -.00000058  00000+0  00000+0 0  9992
2 61187  54.5157 304.0220 0002606  40.2709 142.7180  1.86230164  8292
